[{"name": "GPS BIIR-5  (PRN 22)", "line1": "1 26407U 00040A   26155.27514816  .00000035  00000+0  00000+0 0  9992", "line2": "2 26407  54.8530 215.6754 0121200 302.4112  18.4958  2.00557647189688"}, {"name": "GPS BIIR-8  (PRN 16)", "line1": "1 27663U 03005A   26154.17716226  .00000038  00000+0  00000+0 0  9991", "line2": "2 27663  54.8842 215.5257 0147938  53.0488 330.9032  2.00561393171035"}, {"name": "GPS BIIR-11 (PRN 19)", "line1": "1 28190U 04009A   26155.40209545 -.00000032  00000+0  00000+0 0  9995", "line2": "2 28190  54.8408 276.2039 0115579 172.5421 169.2945  2.00555241162683"}, {"name": "GPS BIIR-13 (PRN 02)", "line1": "1 28474U 04045A   26153.78951816 -.00000077  00000+0  00000+0 0  9993", "line2": "2 28474  55.1451 325.4759 0169815 316.0475   6.4312  2.00555416158131"}, {"name": "GPS BIIRM-1 (PRN 17)", "line1": "1 28874U 05038A   26155.39791679 -.00000030  00000+0  00000+0 0  9997", "line2": "2 28874  54.8889 273.6938 0127801 296.0673  70.8843  2.00566655151588"}, {"name": "GPS BIIRM-2 (PRN 31)", "line1": "1 29486U 06042A   26154.27857834  .00000062  00000+0  00000+0 0  9999", "line2": "2 29486  54.7088 151.8912 0106302  54.0916 122.8728  2.00570746144119"}, {"name": "GPS BIIRM-3 (PRN 12)", "line1": "1 29601U 06052A   26154.95642929  .00000037  00000+0  00000+0 0  9993", "line2": "2 29601  54.9362 214.5309 0085368  90.7300 270.3341  2.00557537143149"}, {"name": "GPS BIIRM-4 (PRN 15)", "line1": "1 32260U 07047A   26155.26126354 -.00000017  00000+0  00000+0 0  9996", "line2": "2 32260  54.0860  80.5985 0166286  87.1331 274.7634  2.00555957136556"}, {"name": "GPS BIIRM-5 (PRN 29)", "line1": "1 32384U 07062A   26155.51662985 -.00000031  00000+0  00000+0 0  9999", "line2": "2 32384  55.0422 274.6622 0035492 164.8221 146.7304  2.00559423135257"}, {"name": "GPS BIIRM-6 (PRN 07)", "line1": "1 32711U 08012A   26155.17371836  .00000068  00000+0  00000+0 0  9992", "line2": "2 32711  54.4955 150.4446 0210998 247.6796 110.0696  2.00572155133492"}, {"name": "GPS BIIRM-8 (PRN 05)", "line1": "1 35752U 09043A   26154.40739282 -.00000076  00000+0  00000+0 0  9993", "line2": "2 35752  56.2018  27.9930 0053657  82.6377  94.8092  2.00555150123084"}, {"name": "GPS BIIF-1  (PRN 25)", "line1": "1 36585U 10022A   26154.54184649  .00000043  00000+0  00000+0 0  9996", "line2": "2 36585  54.2714 209.1120 0126398  66.1333 326.5682  2.00561832117321"}, {"name": "GPS BIIF-3  (PRN 24)", "line1": "1 38833U 12053A   26155.35348569  .00000065  00000+0  00000+0 0  9997", "line2": "2 38833  53.5835 144.1250 0179571  65.5761 296.2750  2.00567337 99184"}, {"name": "GPS BIIF-4  (PRN 27)", "line1": "1 39166U 13023A   26154.22294731 -.00000027  00000+0  00000+0 0  9990", "line2": "2 39166  54.5153 269.5426 0141636  50.9649 310.3017  2.00563651 95601"}, {"name": "GPS BIIF-5  (PRN 30)", "line1": "1 39533U 14008A   26155.22159765  .00000067  00000+0  00000+0 0  9993", "line2": "2 39533  53.6525 149.8486 0084233 231.0616 128.1830  2.00559035 89425"}, {"name": "GPS BIIF-6  (PRN 06)", "line1": "1 39741U 14026A   26154.99842928 -.00000071  00000+0  00000+0 0  9993", "line2": "2 39741  56.5049 332.0309 0038287 326.7756  32.9875  2.00562111 88276"}, {"name": "GPS BIIF-7  (PRN 09)", "line1": "1 40105U 14045A   26155.09003529 -.00000003  00000+0  00000+0 0  9993", "line2": "2 40105  55.3450  88.9867 0032789 118.4274 241.8890  2.00557641 85810"}, {"name": "GPS BIIF-8  (PRN 03)", "line1": "1 40294U 14068A   26154.96102861 -.00000071  00000+0  00000+0 0  9996", "line2": "2 40294  56.9787  31.4643 0066721  70.1033 290.6714  2.00575538 84949"}, {"name": "GPS BIIF-9  (PRN 26)", "line1": "1 40534U 15013A   26153.10435400  .00000050  00000+0  00000+0 0  9993", "line2": "2 40534  53.1691 204.8015 0109234  40.0646 320.8265  2.00552380 81529"}, {"name": "GPS BIIF-10 (PRN 08)", "line1": "1 40730U 15033A   26155.25756365 -.00000025  00000+0  00000+0 0  9990", "line2": "2 40730  53.9928 267.6197 0115056  30.1807 330.4991  2.00557000 79731"}, {"name": "GPS BIIF-11 (PRN 10)", "line1": "1 41019U 15062A   26154.31702301 -.00000073  00000+0  00000+0 0  9993", "line2": "2 41019  56.9501  31.3456 0111548 231.1831 127.8699  2.00567162 77559"}, {"name": "GPS BIIF-12 (PRN 32)", "line1": "1 41328U 16007A   26154.40701902 -.00000007  00000+0  00000+0 0  9999", "line2": "2 41328  55.5160  90.0059 0096298 247.3819 111.5800  2.00552512 75564"}, {"name": "GPS BIII-1  (PRN 04)", "line1": "1 43873U 18109A   26155.79796440  .00000009  00000+0  00000+0 0  9996", "line2": "2 43873  55.6746  92.6759 0038227 198.2291 339.9853  2.00561253 54825"}, {"name": "GPS BIII-2  (PRN 18)", "line1": "1 44506U 19056A   26153.44735856 -.00000081  00000+0  00000+0 0  9997", "line2": "2 44506  55.6403 331.7284 0061230 197.3681 346.8768  2.00569922 49773"}, {"name": "GPS BIII-3  (PRN 23)", "line1": "1 45854U 20041A   26155.52035594 -.00000071  00000+0  00000+0 0  9992", "line2": "2 45854  56.6614  29.4353 0063414 204.6356 335.3918  2.00559225 43780"}, {"name": "GPS BIII-4  (PRN 14)", "line1": "1 46826U 20078A   26155.87644207  .00000039  00000+0  00000+0 0  9990", "line2": "2 46826  53.9814 211.2781 0072999 206.8575 206.2075  2.00565007 41269"}, {"name": "GPS BIII-5  (PRN 11)", "line1": "1 48859U 21054A   26155.54310282 -.00000072  00000+0  00000+0 0  9998", "line2": "2 48859  55.1809 332.9681 0024954 228.5976 129.9108  2.00570096 36490"}, {"name": "GPS BIII-6  (PRN 28)", "line1": "1 55268U 23009A   26154.74398397  .00000065  00000+0  00000+0 0  9997", "line2": "2 55268  55.1213 149.0473 0006173 316.5044 223.0998  2.00572547 24970"}, {"name": "GPS BIII-7  (PRN 01)", "line1": "1 62339U 24242A   26155.87622468 -.00000072  00000+0  00000+0 0  9997", "line2": "2 62339  54.8548 334.6808 0017380   4.3372 355.2170  2.00571595 11008"}, {"name": "GPS BIII-8  (PRN 21)", "line1": "1 64202U 25116A   26155.36633038 -.00000073  00000+0  00000+0 0  9999", "line2": "2 64202  55.2259  31.6468 0008452 337.8257 196.1658  2.00577081  7616"}, {"name": "GPS BIII-9  (PRN 20)", "line1": "1 67588U 26017A   26152.24333673 -.00000030  00000+0  00000+0 0  9999", "line2": "2 67588  55.0787  89.3950 0022624 257.1779 102.5406  2.00571608431292"}, {"name": "GPS BIII-10 (PRN 13)", "line1": "1 68791U 26087A   26155.45404907  .00000044  00000+0  00000+0 0  9992", "line2": "2 68791  54.9640 208.2915 0020943 107.1704 256.5899  2.00569407   586"}]